1 45145U 20008Q   22365.45284283 -.00000019  00000-0 -88402-4 0  9991
2 45145  87.8860 272.1439 0002500  87.6405 272.5010 13.11415734144694
1 45145U 20008Q   22365.68173393 -.00000060  00000-0 -20390-3 0  9992
2 45145  87.8860 272.0983 0002505  87.4217 272.7197 13.11415670144722
1 45145U 20008Q   23001.13951681 -.00000039  00000-0 -14677-3 0  9991
2 45145  87.8859 272.0071 0002499  86.9331 273.2083 13.11414716145575
1 45145U 20008Q   23001.44470354  .00000164  00000-0  42816-3 0  9991
2 45145  87.8859 271.9464 0002504  86.5967 273.5447 13.11415770144822
1 45145U 20008Q   23001.74989234  .00000116  00000-0  29114-3 0  9999
2 45145  87.8859 271.8857 0002505  86.2558 273.8856 13.11414927144865
1 45145U 20008Q   23002.43656455  .00000324  00000-0  87916-3 0  9997
2 45145  87.8860 271.7490 0002513  85.6981 274.4434 13.11415576144951
1 45145U 20008Q   23002.43656455  .00000324  00000-0  87916-3 0  9997
2 45145  87.8860 271.7490 0002513  85.6981 274.4434 13.11415576145749
1 45145U 20008Q   23002.66545522  .00000284  00000-0  76638-3 0  9998
2 45145  87.8860 271.7034 0002509  85.4393 274.7022 13.11416074144988
1 45145U 20008Q   23003.42842431  .00000478  00000-0  13135-2 0  9999
2 45145  87.8860 271.5515 0002508  84.7459 275.3955 13.11416315145086
1 45145U 20008Q   23004.49658025  .00000509  00000-0  13992-2 0  9997
2 45145  87.8860 271.3389 0002512  83.7439 276.3975 13.11417016145223
1 45145U 20008Q   23004.49658025  .00000509  00000-0  13992-2 0  9997
2 45145  87.8860 271.3389 0002512  83.7439 276.3975 13.11417016146011
1 45145U 20008Q   23004.64917363  .00000534  00000-0  14717-2 0  9991
2 45145  87.8861 271.3085 0002501  83.5394 276.6019 13.11417267145245
1 45145U 20008Q   23005.48843761  .00000568  00000-0  15667-2 0  9996
2 45145  87.8861 271.1414 0002519  82.7785 277.3629 13.11417906145350
1 45145U 20008Q   23006.48029389  .00000516  00000-0  14189-2 0  9990
2 45145  87.8861 270.9440 0002502  81.4029 278.7383 13.11418637145483
1 45145U 20008Q   23006.48029389  .00000516  00000-0  14189-2 0  9990
2 45145  87.8861 270.9440 0002502  81.4029 278.7383 13.11418637146271
1 45145U 20008Q   23007.16696267  .00000433  00000-0  11857-2 0  9998
2 45145  87.8860 270.8073 0002502  80.9108 279.2303 13.11419374145572
1 45145U 20008Q   23007.47214899  .00000331  00000-0  89930-3 0  9994
2 45145  87.8860 270.7465 0002501  80.6505 279.4906 13.11419381145617
1 45145U 20008Q   23008.15881700  .00000298  00000-0  80378-3 0  9990
2 45145  87.8861 270.6098 0002511  80.0718 280.0693 13.11420038146499
1 45145U 20008Q   23008.46400327  .00000144  00000-0  36969-3 0  9993
2 45145  87.8859 270.5490 0002505  79.9194 280.2216 13.11419868145748
1 45145U 20008Q   23009.45585749 -.00000031  00000-0 -12381-3 0  9994
2 45145  87.8860 270.3516 0002513  78.8670 281.2740 13.11419554145872
1 45145U 20008Q   23009.45585749 -.00000031  00000-0 -12381-3 0  9994
2 45145  87.8860 270.3516 0002513  78.8670 281.2740 13.11419554146660
1 45145U 20008Q   23009.68474705 -.00000123  00000-0 -38167-3 0  9990
2 45145  87.8861 270.3061 0002507  78.4630 281.6779 13.11419580145902
1 45145U 20008Q   23010.44771152 -.00000246  00000-0 -73123-3 0  9999
2 45145  87.8861 270.1542 0002509  77.9701 282.1708 13.11419369146004
1 45145U 20008Q   23011.13438168 -.00000522  00000-0 -15075-2 0  9991
2 45145  87.8858 270.0176 0002496  77.3684 282.7723 13.11417994146882
1 45145U 20008Q   23011.43956895 -.00000655  00000-0 -18828-2 0  9992
2 45145  87.8858 269.9568 0002493  77.2375 282.9031 13.11417075146139
1 45145U 20008Q   23011.66845896 -.00000626  00000-0 -18034-2 0  9992
2 45145  87.8858 269.9112 0002490  77.0546 283.0860 13.11416821146162
1 45145U 20008Q   23012.43142499 -.00000589  00000-0 -16967-2 0  9998
2 45145  87.8854 269.7593 0002503  76.6713 283.4693 13.11417223146261
1 45145U 20008Q   23012.43142499 -.00000589  00000-0 -16967-2 0  9998
2 45145  87.8854 269.7593 0002503  76.6713 283.4693 13.11417223147059
1 45145U 20008Q   23013.42328447 -.00000468  00000-0 -13569-2 0  9998
2 45145  87.8854 269.5617 0002532  76.0016 284.1393 13.11415223146395
1 45145U 20008Q   23013.95736266 -.00000445  00000-0 -12921-2 0  9994
2 45145  87.8854 269.4553 0002519  75.4138 284.7269 13.11415004146469
1 45145U 20008Q   23013.95736266 -.00000445  00000-0 -12921-2 0  9994
2 45145  87.8854 269.4553 0002519  75.4138 284.7269 13.11415004147257
1 45145U 20008Q   23015.17811418 -.00000281  00000-0 -82761-3 0  9991
2 45145  87.8853 269.2122 0002477  74.2392 285.9009 13.11414247146621
1 45145U 20008Q   23015.17811418 -.00000281  00000-0 -82761-3 0  9991
2 45145  87.8853 269.2122 0002477  74.2392 285.9009 13.11414247147419
1 45145U 20008Q   23015.94108522 -.00000242  00000-0 -71769-3 0  9994
2 45145  87.8853 269.0602 0002455  73.6178 286.5220 13.11413254146723
1 45145U 20008Q   23016.39886581  .00000081  00000-0  19175-3 0  9994
2 45145  87.8850 268.9691 0002461  73.1863 286.9534 13.11414707146781
1 45145U 20008Q   23016.39886581  .00000081  00000-0  19175-3 0  9994
2 45145  87.8850 268.9691 0002461  73.1863 286.9534 13.11414707147579
1 45145U 20008Q   23016.93294644  .00000010  00000-0 -89959-5 0  9999
2 45145  87.8851 268.8629 0002486  73.0548 287.0852 13.11413733146859
1 45145U 20008Q   23017.39072825  .00000219  00000-0  58349-3 0  9992
2 45145  87.8850 268.7717 0002485  72.6250 287.5149 13.11414185146912
1 45145U 20008Q   23018.07740175  .00000330  00000-0  89575-3 0  9997
2 45145  87.8849 268.6349 0002473  72.0709 288.0689 13.11414149147792
1 45145U 20008Q   23018.38258964  .00000348  00000-0  94718-3 0  9995
2 45145  87.8847 268.5742 0002472  71.8376 288.3021 13.11414740147040
1 45145U 20008Q   23018.91666865  .00000475  00000-0  13040-2 0  9996
2 45145  87.8849 268.4677 0002433  70.9310 289.2081 13.11414450147115
1 45145U 20008Q   23019.22185590  .00000524  00000-0  14420-2 0  9990
2 45145  87.8848 268.4069 0002424  70.4145 289.7245 13.11415362147154
1 45145U 20008Q   23019.22185590  .00000524  00000-0  14420-2 0  9990
2 45145  87.8848 268.4069 0002424  70.4145 289.7245 13.11415362147941
1 45145U 20008Q   23020.44260597  .00000648  00000-0  17924-2 0  9996
2 45145  87.8848 268.1639 0002397  68.5685 291.5698 13.11416211147315
1 45145U 20008Q   23020.44260597  .00000648  00000-0  17924-2 0  9996
2 45145  87.8848 268.1639 0002397  68.5685 291.5698 13.11416211148103
1 45145U 20008Q   23021.66335447  .00000494  00000-0  13577-2 0  9997
2 45145  87.8847 267.9208 0002391  67.7250 292.4131 13.11417116148268
1 45145U 20008Q   23023.03669348  .00000370  00000-0  10073-2 0  9991
2 45145  87.8847 267.6473 0002365  66.7764 293.3612 13.11418212148441
1 45145U 20008Q   23024.10484459  .00000178  00000-0  46698-3 0  9997
2 45145  87.8846 267.4346 0002328  65.7545 294.3826 13.11419165148583
1 45145U 20008Q   23025.40188578 -.00000214  00000-0 -63950-3 0  9997
2 45145  87.8849 267.1759 0002331  65.2366 294.9004 13.11418985147965
1 45145U 20008Q   23025.40188578 -.00000214  00000-0 -63950-3 0  9997
2 45145  87.8849 267.1759 0002331  65.2366 294.9004 13.11418985148753
1 45145U 20008Q   23025.70707177 -.00000251  00000-0 -74447-3 0  9996
2 45145  87.8848 267.1147 0002303  65.6091 294.5277 13.11418988148000
1 45145U 20008Q   23026.08855379 -.00000247  00000-0 -73337-3 0  9998
2 45145  87.8849 267.0389 0002323  64.3526 295.7842 13.11419563148055
1 45145U 20008Q   23026.69892669 -.00000351  00000-0 -10262-2 0  9991
2 45145  87.8848 266.9174 0002311  64.0412 296.0954 13.11418483148926
1 45145U 20008Q   23027.61448583 -.00000449  00000-0 -13034-2 0  9994
2 45145  87.8842 266.7353 0002290  63.2090 296.9272 13.11418125148257
1 45145U 20008Q   23027.69078239 -.00000553  00000-0 -15971-2 0  9997
2 45145  87.8841 266.7198 0002283  62.7885 297.3476 13.11418514148265
1 45145U 20008Q   23028.07226561 -.00000506  00000-0 -14640-2 0  9993
2 45145  87.8840 266.6436 0002266  62.3067 297.8291 13.11417991149109
1 45145U 20008Q   23028.22485900 -.00000463  00000-0 -13418-2 0  9998
2 45145  87.8840 266.6134 0002269  62.4451 297.6907 13.11417683148339
1 45145U 20008Q   23028.75893625 -.00000503  00000-0 -14552-2 0  9998
2 45145  87.8840 266.5068 0002252  61.9998 298.1358 13.11417090148402
1 45145U 20008Q   23029.21671634 -.00000479  00000-0 -13879-2 0  9997
2 45145  87.8839 266.4157 0002227  61.8436 298.2917 13.11417408149255
1 45145U 20008Q   23029.67449773 -.00000514  00000-0 -14848-2 0  9991
2 45145  87.8838 266.3248 0002190  62.9594 297.1757 13.11416516148528
1 45145U 20008Q   23030.59006008 -.00000344  00000-0 -10051-2 0  9997
2 45145  87.8836 266.1424 0002159  62.8380 297.2968 13.11415694148641
1 45145U 20008Q   23030.59006008 -.00000344  00000-0 -10051-2 0  9997
2 45145  87.8836 266.1424 0002159  62.8380 297.2968 13.11415694149439
1 45145U 20008Q   23030.89524788 -.00000331  00000-0 -97017-3 0  9994
2 45145  87.8836 266.0813 0002176  61.8168 298.3179 13.11415606148687
1 45145U 20008Q   23031.12413797 -.00000192  00000-0 -57762-3 0  9996
2 45145  87.8836 266.0357 0002174  61.8034 298.3314 13.11416123148710
1 45145U 20008Q   23031.88710784 -.00000127  00000-0 -39434-3 0  9999
2 45145  87.8833 265.8840 0002168  60.4198 299.7146 13.11415606148814
